NORAD_CAT_ID,OBJECT_NAME,OBJECT_TYPE,EPOCH,MEAN_MOTION,ECCENTRICITY,INCLINATION,RA_OF_ASC_NODE,ARG_OF_PERICENTER,MEAN_ANOMALY,BSTAR,MEAN_MOTION_DOT,MEAN_MOTION_DDOT,TLE_LINE0,TLE_LINE1,TLE_LINE2,SEMIMAJOR_AXIS,PERIOD,APOGEE,PERIGEE,DECAYED
53782.0,STARLINK-4679,PAYLOAD,2022-10-01 14:00:01,15.73240633,0.0001541999999999,53.2163,165.5311,146.2768,12.5369,4.7352e-05,6.041e-05,0.0,0 STARLINK-4679,1 53782U 22111K   22274.58334491  .00006041  00000-0  47352-4 0  9992,2 53782  53.2163 165.5311 0001542 146.2768  12.5369 15.73240633  1309,6727.779,91.531,350.682,348.607,0.0
53782.0,STARLINK-4679,PAYLOAD,2022-10-01 22:00:00,15.732551999999998,0.0001520999999999,53.2162,163.8833,139.9495,107.8272,-0.00065259,-0.00091435,0.0,0 STARLINK-4679,1 53782U 22111K   22274.91667824 -.00091435  00000-0 -65259-3 0  9996,2 53782  53.2162 163.8833 0001521 139.9495 107.8272 15.73255200  1308,6727.738,91.53,350.626,348.58,0.0
53782.0,STARLINK-4679,PAYLOAD,2022-10-02 06:00:00,15.73213973,0.0001456,53.2159,162.234,136.7665,199.9598,-0.00082693,-0.0011517,0.0,0 STARLINK-4679,1 53782U 22111K   22275.25001157 -.00115170  00000-0 -82693-3 0  9999,2 53782  53.2159 162.2340 0001456 136.7665 199.9598 15.73213973  3262,6727.855,91.532,350.7,348.741,0.0
53782.0,STARLINK-4679,PAYLOAD,2022-10-02 14:00:01,15.73093138,0.0001848,53.2161,160.5826,138.761,286.8702,0.00086664,0.00122232,0.0,0 STARLINK-4679,1 53782U 22111K   22275.58334491  .00122232  00000-0  86664-3 0  9992,2 53782  53.2161 160.5826 0001848 138.7610 286.8702 15.73093138  1307,6728.2,91.539,351.30800000000005,348.821,0.0
53782.0,STARLINK-4679,PAYLOAD,2022-10-02 22:00:00,15.73177676,0.0001688,53.2163,158.935,135.9747,18.4981,0.00042374,0.00059213,0.0,0 STARLINK-4679,1 53782U 22111K   22275.91667824  .00059213  00000-0  42374-3 0  9996,2 53782  53.2163 158.9350 0001688 135.9747  18.4981 15.73177676  1302,6727.959,91.534,350.96,348.68800000000016,0.0
53782.0,STARLINK-4679,PAYLOAD,2022-10-03 06:00:00,15.73267132,0.0001506999999999,53.2163,157.2857,140.5856,102.8035,-0.00050481,-0.00071076,0.0,0 STARLINK-4679,1 53782U 22111K   22276.25001157 -.00071076  00000-0 -50481-3 0  9996,2 53782  53.2163 157.2857 0001507 140.5856 102.8035 15.73267132  3429,6727.704000000002,91.529,350.583,348.555,0.0
53782.0,STARLINK-4679,PAYLOAD,2022-10-03 14:00:01,15.73173149,0.000168,53.2164,155.6344,146.12,186.2649,0.00076616,0.00108176,0.0,0 STARLINK-4679,1 53782U 22111K   22276.58334491  .00108176  00000-0  76616-3 0  9990,2 53782  53.2164 155.6344 0001680 146.1200 186.2649 15.73173149  1306,6727.972,91.535,350.967,348.706,0.0
53782.0,STARLINK-4679,PAYLOAD,2022-10-03 22:00:00,15.73256212,0.0001486,53.2162,153.987,144.8005,276.4939,-0.00048457,-0.00068242,0.0,0 STARLINK-4679,1 53782U 22111K   22276.91667824 -.00068242  00000-0 -48457-3 0  9999,2 53782  53.2162 153.9870 0001486 144.8005 276.4939 15.73256212  3524,6727.735,91.53,350.6,348.6,0.0
53782.0,STARLINK-4679,PAYLOAD,2022-10-04 06:00:00,15.73267863,0.0001434,53.216,152.3374,144.5166,5.7315,-0.00061834,-0.00086762,0.0,0 STARLINK-4679,1 53782U 22111K   22277.25001157 -.00086762  00000-0 -61834-3 0  9999,2 53782  53.2160 152.3374 0001434 144.5166   5.7315 15.73267863  3583,6727.7019999999975,91.529,350.531,348.602,0.0
53782.0,STARLINK-4679,PAYLOAD,2022-10-04 14:00:01,15.73191952,0.0001817,53.2162,150.686,142.1171,97.1115,-0.00017385,-0.0002494,0.0,0 STARLINK-4679,1 53782U 22111K   22277.58334491 -.00024940  00000-0 -17385-3 0  9997,2 53782  53.2162 150.6860 0001817 142.1171  97.1115 15.73191952  1307,6727.918000000002,91.534,351.006,348.561,0.0
53782.0,STARLINK-4679,PAYLOAD,2022-10-04 22:00:00,15.73164928,0.0001779,53.2164,149.0385,134.0289,194.1089,0.00038942,0.00054305,0.0,0 STARLINK-4679,1 53782U 22111K   22277.91667824  .00054305  00000-0  38942-3 0  9991,2 53782  53.2164 149.0385 0001779 134.0289 194.1089 15.73164928  3684,6727.995,91.535,351.057,348.663,0.0
53782.0,STARLINK-4679,PAYLOAD,2022-10-05 08:00:01,15.73294455,0.0001450999999999,53.2171,146.9772,135.6644,33.6124,-0.0034365,-0.00459363,0.0,0 STARLINK-4679,1 53782U 22111K   22278.33334491 -.00459363  00000-0 -34365-2 0  9998,2 53782  53.2171 146.9772 0001451 135.6644  33.6124 15.73294455  3751,6727.626,91.528,350.467,348.515,0.0
53782.0,STARLINK-4679,PAYLOAD,2022-10-05 14:00:01,15.73116856,0.0001825,53.2165,145.7382,142.6981,3.2486,0.00088674,0.00125254,0.0,0 STARLINK-4679,1 53782U 22111K   22278.58335648  .00125254  00000-0  88674-3 0  9990,2 53782  53.2165 145.7382 0001825 142.6981   3.2486 15.73116856  1306,6728.132,91.538,351.225,348.769,0.0
53782.0,STARLINK-4679,PAYLOAD,2022-10-05 22:00:00,15.73207002,0.0001561999999999,53.2162,144.0911,139.311,95.4515,-0.00021241,-0.00030333,0.0,0 STARLINK-4679,1 53782U 22111K   22278.91667824 -.00030333  00000-0 -21241-3 0  9993,2 53782  53.2162 144.0911 0001562 139.3110  95.4515 15.73207002  1308,6727.875,91.533,350.791,348.689,0.0
53782.0,STARLINK-4679,PAYLOAD,2022-10-06 14:00:01,15.7320698,0.0001816,53.216,140.7901,144.3124,268.2949,0.00013232,0.00017995,0.0,0 STARLINK-4679,1 53782U 22111K   22279.58334491  .00017995  00000-0  13232-3 0  9996,2 53782  53.2160 140.7901 0001816 144.3124 268.2949 15.73206980  1306,6727.875,91.533,350.962,348.51800000000014,0.0
53782.0,STARLINK-4679,PAYLOAD,2022-10-06 22:42:55,15.73180875,0.0001710999999999,53.216,138.9954,133.9898,176.3566,0.00070205,0.00098996,0.0,0 STARLINK-4679,1 53782U 22111K   22279.94646991  .00098996  00000-0  70205-3 0  9990,2 53782  53.2160 138.9954 0001711 133.9898 176.3566 15.73180875  1307,6727.95,91.534,350.966,348.664,0.0
53782.0,STARLINK-4679,PAYLOAD,2022-10-07 00:00:00,15.73181893,0.000165,53.2162,138.7307,133.8642,119.8918,0.00084524,0.00119615,0.0,0 STARLINK-4679,1 53782U 22111K   22280.00001157  .00119615  00000-0  84524-3 0  9999,2 53782  53.2162 138.7307 0001650 133.8642 119.8918 15.73181893  4012,6727.946999999999,91.534,350.922,348.702,0.0
53782.0,STARLINK-4679,PAYLOAD,2022-10-07 14:00:01,15.73226831,0.0001851999999999,53.2161,135.8412,141.0351,178.4284,-2.0759e-05,-3.537e-05,0.0,0 STARLINK-4679,1 53782U 22111K   22280.58334491 -.00003537  00000-0 -20759-4 0  9990,2 53782  53.2161 135.8412 0001852 141.0351 178.4284 15.73226831  4107,6727.819,91.532,350.93,348.43800000000016,0.0
53782.0,STARLINK-4679,PAYLOAD,2022-10-07 22:00:00,15.73210725,0.0001419999999999,53.2153,134.1942,144.9314,263.4862,0.00010922,0.00014742,0.0,0 STARLINK-4679,1 53782U 22111K   22280.91667824  .00014742  00000-0  10922-3 0  9994,2 53782  53.2153 134.1942 0001420 144.9314 263.4862 15.73210725  1301,6727.865,91.533,350.685,348.774,0.0
53782.0,STARLINK-4679,PAYLOAD,2022-10-08 14:00:01,15.73231213,0.0001786,53.215,130.8928,142.8621,83.4463,-0.00049188,-0.00069183,0.0,0 STARLINK-4679,1 53782U 22111K   22281.58334491 -.00069183  00000-0 -49188-3 0  9996,2 53782  53.2150 130.8928 0001786 142.8621  83.4463 15.73231213  1300,6727.806,91.531,350.87300000000016,348.47,0.0
53782.0,STARLINK-4679,PAYLOAD,2022-10-08 22:00:00,15.73262554,0.0001867,53.2163,129.2462,135.3666,179.9275,-0.0026414999999999,-0.00357039,0.0,0 STARLINK-4679,1 53782U 22111K   22281.91667824 -.00357039  00000-0 -26415-2 0  9999,2 53782  53.2163 129.2462 0001867 135.3666 179.9275 15.73262554  1309,6727.717,91.53,350.838,348.326,0.0
53782.0,STARLINK-4679,PAYLOAD,2022-10-09 06:00:00,15.73150032,0.0001666999999999,53.2149,127.5947,134.5783,269.6006,0.00030476,0.00042276,0.0,0 STARLINK-4679,1 53782U 22111K   22282.25001157  .00042276  00000-0  30476-3 0  9993,2 53782  53.2149 127.5947 0001667 134.5783 269.6006 15.73150032  4366,6728.038000000001,91.536,351.024,348.781,0.0
53782.0,STARLINK-4679,PAYLOAD,2022-10-09 14:00:01,15.73222651,0.0001783,53.2149,125.9443,136.368,356.6886,3.7462e-05,4.645e-05,0.0,0 STARLINK-4679,1 53782U 22111K   22282.58334491  .00004645  00000-0  37462-4 0  9990,2 53782  53.2149 125.9443 0001783 136.3680 356.6886 15.73222651  1305,6727.831,91.532,350.895,348.496,0.0
53782.0,STARLINK-4679,PAYLOAD,2022-10-09 22:00:00,15.73212964,0.0001593,53.2144,124.2967,128.6388,93.378,0.00011345,0.0001534,0.0,0 STARLINK-4679,1 53782U 22111K   22282.91667824  .00015340  00000-0  11345-3 0  9991,2 53782  53.2144 124.2967 0001593 128.6388  93.3780 15.73212964  1305,6727.858,91.532,350.795,348.651,0.0
53782.0,STARLINK-4679,PAYLOAD,2022-10-10 08:00:01,15.73189944,0.0001663,53.2149,122.2332,137.8332,285.3848,1.7198e-05,1.793e-05,0.0,0 STARLINK-4679,1 53782U 22111K   22283.33334491  .00001793  00000-0  17198-4 0  9999,2 53782  53.2149 122.2332 0001663 137.8332 285.3848 15.73189944  4541,6727.924,91.534,350.908,348.67,0.0
53782.0,STARLINK-4679,PAYLOAD,2022-10-10 14:00:01,15.7327304,0.0001759,53.2157,120.9957,138.7629,261.1268,-0.0020134,-0.00275032,0.0,0 STARLINK-4679,1 53782U 22111K   22283.58334491 -.00275032  00000-0 -20134-2 0  9999,2 53782  53.2157 120.9957 0001759 138.7629 261.1268 15.73273040  1303,6727.687,91.529,350.735,348.369,0.0
53782.0,STARLINK-4679,PAYLOAD,2022-10-10 22:00:01,15.7330402,0.0001584,53.216,119.3485,133.1551,355.8085,-0.003172,-0.00425909,0.0,0 STARLINK-4679,1 53782U 22111K   22283.91668981 -.00425909  00000-0 -31720-2 0  9993,2 53782  53.2160 119.3485 0001584 133.1551 355.8085 15.73304020  1305,6727.599,91.527,350.529,348.398,0.0
53782.0,STARLINK-4679,PAYLOAD,2022-10-11 14:00:01,15.73139084,0.0001882,53.2172,116.0484,128.3296,178.2894,0.00077589,0.00109415,0.0,0 STARLINK-4679,1 53782U 22111K   22284.58334491  .00109415  00000-0  77589-3 0  9996,2 53782  53.2172 116.0484 0001882 128.3296 178.2894 15.73139084  1305,6728.069,91.537,351.2,348.668,0.0
53782.0,STARLINK-4679,PAYLOAD,2022-10-11 22:00:00,15.73174362,0.0001347,53.214,114.3992,126.4947,268.9804,0.00067107,0.00094522,0.0,0 STARLINK-4679,1 53782U 22111K   22284.91667824  .00094522  00000-0  67107-3 0  9999,2 53782  53.2140 114.3992 0001347 126.4947 268.9804 15.73174362  1309,6727.968000000003,91.535,350.74,348.927,0.0
